NORAD_CAT_ID,OBJECT_NAME,OBJECT_TYPE,EPOCH,MEAN_MOTION,ECCENTRICITY,INCLINATION,RA_OF_ASC_NODE,ARG_OF_PERICENTER,MEAN_ANOMALY,BSTAR,MEAN_MOTION_DOT,MEAN_MOTION_DDOT,TLE_LINE0,TLE_LINE1,TLE_LINE2,SEMIMAJOR_AXIS,PERIOD,APOGEE,PERIGEE,DECAYED
55286.0,STARLINK-5338,PAYLOAD,2024-02-16 14:40:57,14.98338544,0.0002904,69.9999,120.778,270.0474,90.0352,1.2586e-05,5.7e-07,0.0,0 STARLINK-5338,1 55286U 23010T   24047.61178053  .00000057  00000-0  12586-4 0  9998,2 55286  69.9999 120.7780 0002904 270.0474  90.0352 14.98338544 60614,6950.166,96.106,574.05,570.013,0.0
55286.0,STARLINK-5338,PAYLOAD,2024-02-17 11:30:43,14.98325081,0.0002802,70.0004,118.5913,267.8808,92.203,6.558e-05,6.89e-06,0.0,0 STARLINK-5338,1 55286U 23010T   24048.47966749  .00000689  00000-0  65580-4 0  9993,2 55286  70.0004 118.5913 0002802 267.8808  92.2030 14.98325081 60438,6950.208,96.107,574.021,570.126,0.0
55286.0,STARLINK-5338,PAYLOAD,2024-02-17 14:42:59,14.98325988,0.0002797,70.0004,118.2549,266.7787,93.3052,7.0989e-05,7.54e-06,0.0,0 STARLINK-5338,1 55286U 23010T   24048.61318693  .00000754  00000-0  70989-4 0  9990,2 55286  70.0004 118.2549 0002797 266.7787  93.3052 14.98325988 60765,6950.205,96.107,574.014,570.126,0.0
55286.0,STARLINK-5338,PAYLOAD,2024-02-18 11:32:44,14.98328746,0.0002732,70.0005,116.0664,269.0916,90.993,-2.7898e-05,-4.26e-06,0.0,0 STARLINK-5338,1 55286U 23010T   24049.48106916 -.00000426  00000-0 -27898-4 0  9998,2 55286  70.0005 116.0664 0002732 269.0916  90.9930 14.98328746 60582,6950.197,96.107,573.961,570.163,0.0
55286.0,STARLINK-5338,PAYLOAD,2024-02-18 14:45:00,14.98329455,0.0002631,70.0006,115.7301,268.183,91.9028,-5.3735e-06,-1.57e-06,0.0,0 STARLINK-5338,1 55286U 23010T   24049.61458816 -.00000157  00000-0 -53735-5 0  9993,2 55286  70.0006 115.7301 0002631 268.1830  91.9028 14.98329455 60914,6950.195,96.107,573.888,570.231,0.0
55286.0,STARLINK-5338,PAYLOAD,2024-02-18 21:09:32,14.98334425,0.000253,70.001,115.0562,265.7706,94.3164,-0.00022032,-2.721e-05,0.0,0 STARLINK-5338,1 55286U 23010T   24049.88163050 -.00002721  00000-0 -22032-3 0  9998,2 55286  70.0010 115.0562 0002530 265.7706  94.3164 14.98334425 60959,6950.179,96.107,573.803,570.286,0.0
55286.0,STARLINK-5338,PAYLOAD,2024-02-19 11:34:45,14.98332053,0.0002451,69.9995,113.5404,269.3097,90.7781,5.2494e-05,5.33e-06,0.0,0 STARLINK-5338,1 55286U 23010T   24050.48246537  .00000533  00000-0  52494-4 0  9991,2 55286  69.9995 113.5404 0002451 269.3097  90.7781 14.98332053 60737,6950.187,96.107,573.755,570.348,0.0
55286.0,STARLINK-5338,PAYLOAD,2024-02-19 13:10:52,14.98338413,0.0002448,70.0006,113.3757,244.8794,115.2112,0.00011291,1.255e-05,0.0,0 STARLINK-5338,1 55286U 23010T   24050.54921851  .00001255  00000-0  11291-3 0  9998,2 55286  70.0006 113.3757 0002448 244.8794 115.2112 14.98338413 61053,6950.167,96.106,573.733,570.33,0.0
55286.0,STARLINK-5338,PAYLOAD,2024-02-19 21:11:32,14.98374907,0.0001767,70.003,112.5316,279.5704,80.5256,-0.00073382,-8.847e-05,0.0,0 STARLINK-5338,1 55286U 23010T   24050.88301648 -.00008847  00000-0 -73382-3 0  9996,2 55286  70.0030 112.5316 0001767 279.5704  80.5256 14.98374907 61108,6950.054,96.104,573.147,570.691,0.0
55286.0,STARLINK-5338,PAYLOAD,2024-02-20 03:36:05,14.9833063,0.0002056,70.002,111.8591,265.6613,94.4311,6.7044e-05,7.07e-06,0.0,0 STARLINK-5338,1 55286U 23010T   24051.15006436  .00000707  00000-0  67044-4 0  9998,2 55286  70.0020 111.8591 0002056 265.6613  94.4311 14.98330630 60831,6950.191,96.107,573.485,570.627,0.0
55286.0,STARLINK-5338,PAYLOAD,2024-02-20 11:36:46,14.98323322,0.0002418,70.001,111.0172,266.3024,93.7859,-3.2538e-05,-4.81e-06,0.0,0 STARLINK-5338,1 55286U 23010T   24051.48387154 -.00000481  00000-0 -32538-4 0  9994,2 55286  70.0010 111.0172 0002418 266.3024  93.7859 14.98323322 60887,6950.214,96.107,573.759,570.398,0.0
55286.0,STARLINK-5338,PAYLOAD,2024-02-20 13:12:54,14.98322623,0.0002432,70.001,110.849,266.6612,93.4269,-4.0198e-05,-5.72e-06,0.0,0 STARLINK-5338,1 55286U 23010T   24051.55063248 -.00000572  00000-0 -40198-4 0  9999,2 55286  70.0010 110.8490 0002432 266.6612  93.4269 14.98322623 61201,6950.216,96.107,573.771,570.39,0.0
55286.0,STARLINK-5338,PAYLOAD,2024-02-20 21:13:34,14.98328052,0.0002704,69.9999,110.006,272.4255,87.6594,-5.5196e-05,-7.51e-06,0.0,0 STARLINK-5338,1 55286U 23010T   24051.88442961 -.00000751  00000-0 -55196-4 0  9991,2 55286  69.9999 110.0060 0002704 272.4255  87.6594 14.98328052 61252,6950.199,96.107,573.943,570.185,0.0
55286.0,STARLINK-5338,PAYLOAD,2024-02-21 11:38:46,14.98332546,0.0002735,69.9993,108.4901,265.8461,94.2386,1.1424e-05,4.3e-07,0.0,0 STARLINK-5338,1 55286U 23010T   24052.48526493  .00000043  00000-0  11424-4 0  9999,2 55286  69.9993 108.4901 0002735 265.8461  94.2386 14.98332546 61032,6950.185,96.107,573.951,570.149,0.0
55286.0,STARLINK-5338,PAYLOAD,2024-02-21 13:14:54,14.98332262,0.0002746,69.9992,108.322,266.3485,93.736,2.1982e-05,1.69e-06,0.0,0 STARLINK-5338,1 55286U 23010T   24052.55202475  .00000169  00000-0  21982-4 0  9997,2 55286  69.9992 108.3220 0002746 266.3485  93.7360 14.98332262 61354,6950.186,96.107,573.959,570.142,0.0
55286.0,STARLINK-5338,PAYLOAD,2024-02-21 21:15:35,14.98341233,0.000273,69.9996,107.4801,270.5904,89.4942,-0.00016804,-2.098e-05,0.0,0 STARLINK-5338,1 55286U 23010T   24052.88582284 -.00002098  00000-0 -16804-3 0  9993,2 55286  69.9996 107.4801 0002730 270.5904  89.4942 14.98341233 61401,6950.158,96.106,573.921,570.126,0.0
55286.0,STARLINK-5338,PAYLOAD,2024-02-22 11:40:47,14.98326718,0.0002976,69.999,105.9648,268.2128,91.869,0.0001142,1.27e-05,0.0,0 STARLINK-5338,1 55286U 23010T   24053.48666421  .00001270  00000-0  11420-3 0  9994,2 55286  69.9990 105.9648 0002976 268.2128  91.8690 14.98326718 61184,6950.203,96.107,574.136,570.0,0.0
55286.0,STARLINK-5338,PAYLOAD,2024-02-22 13:16:55,14.98330765,0.0002928,69.9991,105.7965,268.3538,91.7285,6.8372e-05,7.23e-06,0.0,0 STARLINK-5338,1 55286U 23010T   24053.55342278  .00000723  00000-0  68372-4 0  9994,2 55286  69.9991 105.7965 0002928 268.3538  91.7285 14.98330765 61500,6950.191,96.107,574.091,570.021,0.0
55286.0,STARLINK-5338,PAYLOAD,2024-02-22 21:17:36,14.98307,0.0002802,69.999,104.9547,278.5145,81.5696,0.00044501,5.218e-05,0.0,0 STARLINK-5338,1 55286U 23010T   24053.88723066  .00005218  00000-0  44501-3 0  9999,2 55286  69.9990 104.9547 0002802 278.5145  81.5696 14.98307000 61558,6950.264,96.108,574.076,570.182,0.0
55286.0,STARLINK-5338,PAYLOAD,2024-02-23 11:42:48,14.98334847,0.0002906,69.9991,103.4403,269.6182,90.4644,2.701e-05,2.29e-06,0.0,0 STARLINK-5338,1 55286U 23010T   24054.48806035  .00000229  00000-0  27010-4 0  9998,2 55286  69.9991 103.4403 0002906 269.6182  90.4644 14.98334847 61338,6950.178,96.107,574.063,570.023,0.0
55286.0,STARLINK-5338,PAYLOAD,2024-02-23 13:18:56,14.98323922,0.0002712,69.9991,103.2719,264.6111,95.4739,0.00023391,2.699e-05,0.0,0 STARLINK-5338,1 55286U 23010T   24054.55482193  .00002699  00000-0  23391-3 0  9991,2 55286  69.9991 103.2719 0002712 264.6111  95.4739 14.98323922 61655,6950.212,96.107,573.962,570.192,0.0
55286.0,STARLINK-5338,PAYLOAD,2024-02-24 11:44:49,14.9832554,0.0002843,69.9992,100.9155,269.6996,90.3837,7.1307e-05,7.58e-06,0.0,0 STARLINK-5338,1 55286U 23010T   24055.48946368  .00000758  00000-0  71307-4 0  9998,2 55286  69.9992 100.9155 0002843 269.6996  90.3837 14.98325540 61487,6950.207,96.107,574.048,570.096,0.0
55286.0,STARLINK-5338,PAYLOAD,2024-02-24 13:20:57,14.98331155,0.0002866,69.9992,100.7472,271.2639,88.8192,-1.6287e-05,-2.87e-06,0.0,0 STARLINK-5338,1 55286U 23010T   24055.55622222 -.00000287  00000-0 -16287-4 0  9991,2 55286  69.9992 100.7472 0002866 271.2639  88.8192 14.98331155 61806,6950.189,96.107,574.046,570.062,0.0
55286.0,STARLINK-5338,PAYLOAD,2024-02-24 19:45:29,14.98332459,0.0002824,69.9993,100.074,270.5403,89.5432,-3.6167e-05,-5.25e-06,0.0,0 STARLINK-5338,1 55286U 23010T   24055.82326164 -.00000525  00000-0 -36167-4 0  9991,2 55286  69.9993 100.0740 0002824 270.5403  89.5432 14.98332459 61840,6950.185,96.107,574.013,570.088,0.0
55286.0,STARLINK-5338,PAYLOAD,2024-02-25 13:22:58,14.98333763,0.0002812,69.9994,98.2224,268.5659,91.5178,2.4924e-05,2.04e-06,0.0,0 STARLINK-5338,1 55286U 23010T   24056.55761767  .00000204  00000-0  24924-4 0  9994,2 55286  69.9994  98.2224 0002812 268.5659  91.5178 14.98333763 61640,6950.181,96.107,574.001,570.092,0.0
55286.0,STARLINK-5338,PAYLOAD,2024-02-25 19:47:30,14.98357034,0.0002775,70.0,97.5481,275.7235,84.3608,-0.00050678,-6.139e-05,0.0,0 STARLINK-5338,1 55286U 23010T   24056.82465477 -.00006139  00000-0 -50678-3 0  9992,2 55286  70.0000  97.5481 0002775 275.7235  84.3608 14.98357034 61685,6950.109,96.105,573.903,570.046,0.0
55286.0,STARLINK-5338,PAYLOAD,2024-02-26 03:48:10,14.98328685,0.0002726,69.9997,96.7074,265.5395,94.5453,6.6384e-06,-1.4e-07,0.0,0 STARLINK-5338,1 55286U 23010T   24057.15846039 -.00000014  00000-0  66384-5 0  9994,2 55286  69.9997  96.7074 0002726 265.5395  94.5453 14.98328685 61733,6950.197,96.107,573.957,570.167,0.0
55286.0,STARLINK-5338,PAYLOAD,2024-02-26 11:48:50,14.98334373,0.0002795,69.9995,95.8663,268.153,91.9309,4.982e-05,5.02e-06,0.0,0 STARLINK-5338,1 55286U 23010T   24057.49225539  .00000502  00000-0  49820-4 0  9993,2 55286  69.9995  95.8663 0002795 268.1530  91.9309 14.98334373 62093,6950.179,96.107,573.987,570.102,0.0
55286.0,STARLINK-5338,PAYLOAD,2024-02-27 11:50:52,14.98324413,0.0002832,69.9996,93.3403,265.0135,95.07,-6.3011e-05,-8.45e-06,0.0,0 STARLINK-5338,1 55286U 23010T   24058.49366414 -.00000845  00000-0 -63011-4 0  9992,2 55286  69.9996  93.3403 0002832 265.0135  95.0700 14.98324413 61934,6950.21,96.107,574.043,570.107,0.0
55286.0,STARLINK-5338,PAYLOAD,2024-02-27 19:51:32,14.98327124,0.0003004,69.9993,92.4981,268.141,91.9405,-2.9093e-05,-4.4e-06,0.0,0 STARLINK-5338,1 55286U 23010T   24058.82746190 -.00000440  00000-0 -29093-4 0  9995,2 55286  69.9993  92.4981 0003004 268.1410  91.9405 14.98327124 62293,6950.202,96.107,574.155,569.979,0.0
